start=new Date('2021-10-26T00:00:00.000Z').valueOf();
sats=[{"INCLINATION":"53.0537","TLE_LINE1":"1 44728U 19074R   21298.24375773  .00010115  00000-0  82161-4 0  9996","MEAN_ANOMALY":"323.0843","OBJECT_TYPE":"PAYLOAD","NORAD_CAT_ID":"44728","REF_FRAME":"TEME","PERIAPSIS":"353.491","CLASSIFICATION_TYPE":"U","MEAN_MOTION_DDOT":"0.0000000000000","LAUNCH_DATE":"2019-11-11","TIME_SYSTEM":"UTC","MEAN_MOTION":"15.71452230","PERIOD":"91.635","ECCENTRICITY":"0.00018670","REV_AT_EPOCH":"10856","GP_ID":"188141507","BSTAR":"0.00008216100000","EPOCH":"2021-10-25T05:51:00.667872","CENTER_NAME":"EARTH","RA_OF_ASC_NODE":"122.3200","OBJECT_ID":"2019-074R","RCS_SIZE":"LARGE","MEAN_MOTION_DOT":"0.00010115","MEAN_ELEMENT_THEORY":"SGP4","ARG_OF_PERICENTER":"37.0302","ELEMENT_SET_NO":"999","FILE":"3183453","TLE_LINE2":"2 44728  53.0537 122.3200 0001867  37.0302 323.0843 15.71452230108560","COUNTRY_CODE":"US","OBJECT_NAME":"STARLINK-1023","SEMIMAJOR_AXIS":"6732.883","SITE":"AFETR","DECAY_DATE":null,"APOAPSIS":"356.005","EPHEMERIS_TYPE":"0"},{"BSTAR":"0.00026907000000","GP_ID":"188142259","REV_AT_EPOCH":"10783","ECCENTRICITY":"0.00014980","PERIOD":"95.494","MEAN_MOTION":"15.07943340","TIME_SYSTEM":"UTC","LAUNCH_DATE":"2019-11-11","MEAN_MOTION_DDOT":"0.0000000000000","CLASSIFICATION_TYPE":"U","PERIAPSIS":"541.451","REF_FRAME":"TEME","NORAD_CAT_ID":"44729","OBJECT_TYPE":"PAYLOAD","MEAN_ANOMALY":"304.6257","TLE_LINE1":"1 44729U 19074S   21298.01193807  .00003896  00000-0  26907-3 0  9991","INCLINATION":"52.9997","RA_OF_ASC_NODE":"171.4176","OBJECT_ID":"2019-074S","CENTER_NAME":"EARTH","EPOCH":"2021-10-25T00:17:11.449248","ELEMENT_SET_NO":"999","ARG_OF_PERICENTER":"55.4873","RCS_SIZE":"LARGE","MEAN_MOTION_DOT":"0.00003896","MEAN_ELEMENT_THEORY":"SGP4","EPHEMERIS_TYPE":"0","APOAPSIS":"543.524","DECAY_DATE":null,"SITE":"AFETR","SEMIMAJOR_AXIS":"6920.622","OBJECT_NAME":"STARLINK-1024","COUNTRY_CODE":"US","TLE_LINE2":"2 44729  52.9997 171.4176 0001498  55.4873 304.6257 15.07943340107832","FILE":"3183453"},{"OBJECT_TYPE":"PAYLOAD","MEAN_ANOMALY":"285.3247","NORAD_CAT_ID":"44731","INCLINATION":"53.0526","TLE_LINE1":"1 44731U 19074U   21298.11454948 -.00000793  00000-0 -34323-4 0  9998","CLASSIFICATION_TYPE":"U","TIME_SYSTEM":"UTC","LAUNCH_DATE":"2019-11-11","MEAN_MOTION_DDOT":"0.0000000000000","REF_FRAME":"TEME","PERIAPSIS":"546.064","ECCENTRICITY":"0.00016940","MEAN_MOTION":"15.06392282","PERIOD":"95.593","GP_ID":"188143009","BSTAR":"-0.00003432300000","REV_AT_EPOCH":"10810","EPOCH":"2021-10-25T02:44:57.075072","CENTER_NAME":"EARTH","OBJECT_ID":"2019-074U","RA_OF_ASC_NODE":"153.9297","ARG_OF_PERICENTER":"74.7929","RCS_SIZE":"LARGE","MEAN_MOTION_DOT":"-0.00000793","MEAN_ELEMENT_THEORY":"SGP4","ELEMENT_SET_NO":"999","FILE":"3183453","OBJECT_NAME":"STARLINK-1026","SEMIMAJOR_AXIS":"6925.372","TLE_LINE2":"2 44731  53.0526 153.9297 0001694  74.7929 285.3247 15.06392282108105","COUNTRY_CODE":"US","DECAY_DATE":null,"SITE":"AFETR","APOAPSIS":"548.410","EPHEMERIS_TYPE":"0"},{"EPOCH":"2021-10-25T00:50:49.396416","OBJECT_ID":"2019-074V","RA_OF_ASC_NODE":"174.2866","CENTER_NAME":"EARTH","LAUNCH_DATE":"2019-11-11","MEAN_MOTION_DDOT":"0.0000000000000","TIME_SYSTEM":"UTC","CLASSIFICATION_TYPE":"U","PERIAPSIS":"545.918","REF_FRAME":"TEME","OBJECT_TYPE":"PAYLOAD","MEAN_ANOMALY":"283.3379","NORAD_CAT_ID":"44732","TLE_LINE1":"1 44732U 19074V   21298.03529394  .00000496  00000-0  52190-4 0  9998","INCLINATION":"53.0534","BSTAR":"0.00005219000000","GP_ID":"188141757","REV_AT_EPOCH":"10781","ECCENTRICITY":"0.00018950","PERIOD":"95.592","MEAN_MOTION":"15.06394401","SEMIMAJOR_AXIS":"6925.366","OBJECT_NAME":"STARLINK-1027","COUNTRY_CODE":"US","TLE_LINE2":"2 44732  53.0534 174.2866 0001895  76.7821 283.3379 15.06394401107815","FILE":"3183453","APOAPSIS":"548.543","EPHEMERIS_TYPE":"0","DECAY_DATE":null,"SITE":"AFETR","ELEMENT_SET_NO":"999","ARG_OF_PERICENTER":"76.7821","RCS_SIZE":"LARGE","MEAN_MOTION_DOT":"0.00000496","MEAN_ELEMENT_THEORY":"SGP4"},{"RA_OF_ASC_NODE":"153.9938","OBJECT_ID":"2019-074W","CENTER_NAME":"EARTH","EPOCH":"2021-10-25T02:23:43.560672","REV_AT_EPOCH":"10810","GP_ID":"188142007","BSTAR":"0.00007966800000","PERIOD":"95.593","MEAN_MOTION":"15.06393603","ECCENTRICITY":"0.00017010","REF_FRAME":"TEME","PERIAPSIS":"546.055","CLASSIFICATION_TYPE":"U","LAUNCH_DATE":"2019-11-11","MEAN_MOTION_DDOT":"0.0000000000000","TIME_SYSTEM":"UTC","INCLINATION":"53.0543","TLE_LINE1":"1 44733U 19074W   21298.09980973  .00000905  00000-0  79668-4 0  9993","NORAD_CAT_ID":"44733","OBJECT_TYPE":"PAYLOAD","MEAN_ANOMALY":"282.7576","EPHEMERIS_TYPE":"0","APOAPSIS":"548.411","SITE":"AFETR","DECAY_DATE":null,"TLE_LINE2":"2 44733  53.0543 153.9938 0001701  77.3603 282.7576 15.06393603108109","COUNTRY_CODE":"US","OBJECT_NAME":"STARLINK-1028","SEMIMAJOR_AXIS":"6925.368","FILE":"3183453","ELEMENT_SET_NO":"999","MEAN_MOTION_DOT":"0.00000905","RCS_SIZE":"LARGE","MEAN_ELEMENT_THEORY":"SGP4","ARG_OF_PERICENTER":"77.3603"},{"EPHEMERIS_TYPE":"0","APOAPSIS":"550.785","DECAY_DATE":null,"SITE":"AFETR","OBJECT_NAME":"STARLINK-1029","SEMIMAJOR_AXIS":"6928.196","TLE_LINE2":"2 44734  53.0011  71.8763 0001046 148.7077 211.3973 15.05471535109441","COUNTRY_CODE":"US","FILE":"3183588","ELEMENT_SET_NO":"999","ARG_OF_PERICENTER":"148.7077","RCS_SIZE":"LARGE","MEAN_MOTION_DOT":"0.00027555","MEAN_ELEMENT_THEORY":"SGP4","RA_OF_ASC_NODE":"71.8763","OBJECT_ID":"2019-074X","CENTER_NAME":"EARTH","EPOCH":"2021-10-25T13:42:47.103264","GP_ID":"188148295","BSTAR":"0.00190850000000","REV_AT_EPOCH":"10944","ECCENTRICITY":"0.00010460","PERIOD":"95.651","MEAN_MOTION":"15.05471535","CLASSIFICATION_TYPE":"U","MEAN_MOTION_DDOT":"0.0000000000000","LAUNCH_DATE":"2019-11-11","TIME_SYSTEM":"UTC","REF_FRAME":"TEME","PERIAPSIS":"549.336","NORAD_CAT_ID":"44734","OBJECT_TYPE":"PAYLOAD","MEAN_ANOMALY":"211.3973","INCLINATION":"53.0011","TLE_LINE1":"1 44734U 19074X   21298.57137851  .00027555  00000-0  19085-2 0  9991"},{"EPOCH":"2021-10-25T04:12:33.129216","OBJECT_ID":"2019-074Y","RA_OF_ASC_NODE":"173.6608","CENTER_NAME":"EARTH","LAUNCH_DATE":"2019-11-11","TIME_SYSTEM":"UTC","MEAN_MOTION_DDOT":"0.0000000000000","CLASSIFICATION_TYPE":"U","PERIAPSIS":"546.134","REF_FRAME":"TEME","OBJECT_TYPE":"PAYLOAD","NORAD_CAT_ID":"44735","MEAN_ANOMALY":"290.4209","TLE_LINE1":"1 44735U 19074Y   21298.17538344  .00003267  00000-0  23832-3 0  9990","INCLINATION":"53.0536","BSTAR":"0.00023832000000","GP_ID":"188142510","REV_AT_EPOCH":"10783","ECCENTRICITY":"0.00016990","PERIOD":"95.594","MEAN_MOTION":"15.06368318","SEMIMAJOR_AXIS":"6925.446","OBJECT_NAME":"STARLINK-1030","COUNTRY_CODE":"US","TLE_LINE2":"2 44735  53.0536 173.6608 0001699  69.6963 290.4209 15.06368318107838","FILE":"3183453","EPHEMERIS_TYPE":"0","APOAPSIS":"548.487","DECAY_DATE":null,"SITE":"AFETR","ELEMENT_SET_NO":"999","ARG_OF_PERICENTER":"69.6963","RCS_SIZE":"LARGE","MEAN_MOTION_DOT":"0.00003267","MEAN_ELEMENT_THEORY":"SGP4"},{"OBJECT_ID":"2019-074Z","RA_OF_ASC_NODE":"172.6985","CENTER_NAME":"EARTH","EPOCH":"2021-10-25T09:20:23.715168","REV_AT_EPOCH":"10804","GP_ID":"188148270","BSTAR":"0.00015705000000","PERIOD":"95.592","MEAN_MOTION":"15.06400156","ECCENTRICITY":"0.00016690","REF_FRAME":"TEME","PERIAPSIS":"546.057","CLASSIFICATION_TYPE":"U","TIME_SYSTEM":"UTC","LAUNCH_DATE":"2019-11-11","MEAN_MOTION_DDOT":"0.0000000000000","INCLINATION":"53.0541","TLE_LINE1":"1 44736U 19074Z   21298.38916337  .00002058  00000-0  15705-3 0  9993","OBJECT_TYPE":"PAYLOAD","MEAN_ANOMALY":"287.6157","NORAD_CAT_ID":"44736","APOAPSIS":"548.369","EPHEMERIS_TYPE":"0","SITE":"AFETR","DECAY_DATE":null,"TLE_LINE2":"2 44736  53.0541 172.6985 0001669  72.5014 287.6157 15.06400156108040","COUNTRY_CODE":"US","OBJECT_NAME":"STARLINK-1031","SEMIMAJOR_AXIS":"6925.348","FILE":"3183598","ELEMENT_SET_NO":"999","RCS_SIZE":"LARGE","MEAN_MOTION_DOT":"0.00002058","MEAN_ELEMENT_THEORY":"SGP4","ARG_OF_PERICENTER":"72.5014"},{"EPOCH":"2021-10-25T03:14:07.673856","CENTER_NAME":"EARTH","RA_OF_ASC_NODE":"173.8422","OBJECT_ID":"2019-074AA","MEAN_ANOMALY":"286.1733","OBJECT_TYPE":"PAYLOAD","NORAD_CAT_ID":"44737","INCLINATION":"53.0541","TLE_LINE1":"1 44737U 19074AA  21298.13481104  .00001424  00000-0  11442-3 0  9996","CLASSIFICATION_TYPE":"U","LAUNCH_DATE":"2019-11-11","MEAN_MOTION_DDOT":"0.0000000000000","TIME_SYSTEM":"UTC","REF_FRAME":"TEME","PERIAPSIS":"545.956","ECCENTRICITY":"0.00017710","MEAN_MOTION":"15.06410138","PERIOD":"95.591","GP_ID":"188141508","BSTAR":"0.00011442000000","REV_AT_EPOCH":"10783","FILE":"3183453","OBJECT_NAME":"STARLINK-1032","SEMIMAJOR_AXIS":"6925.317","TLE_LINE2":"2 44737  53.0541 173.8422 0001771  73.9450 286.1733 15.06410138107834","COUNTRY_CODE":"US","DECAY_DATE":null,"SITE":"AFETR","EPHEMERIS_TYPE":"0","APOAPSIS":"548.409","ARG_OF_PERICENTER":"73.9450","RCS_SIZE":"LARGE","MEAN_MOTION_DOT":"0.00001424","MEAN_ELEMENT_THEORY":"SGP4","ELEMENT_SET_NO":"999"},{"INCLINATION":"53.0532","TLE_LINE1":"1 44738U 19074AB  21298.38547190  .00001905  00000-0  14675-3 0  9997","OBJECT_TYPE":"PAYLOAD","NORAD_CAT_ID":"44738","MEAN_ANOMALY":"285.5123","REF_FRAME":"TEME","PERIAPSIS":"545.758","CLASSIFICATION_TYPE":"U","TIME_SYSTEM":"UTC","LAUNCH_DATE":"2019-11-11","MEAN_MOTION_DDOT":"0.0000000000000","MEAN_MOTION":"15.06397933","PERIOD":"95.592","ECCENTRICITY":"0.00021110","REV_AT_EPOCH":"10803","GP_ID":"188148773","BSTAR":"0.00014675000000","EPOCH":"2021-10-25T09:15:04.772160","CENTER_NAME":"EARTH","RA_OF_ASC_NODE":"172.7019","OBJECT_ID":"2019-074AB","MEAN_ELEMENT_THEORY":"SGP4","RCS_SIZE":"LARGE","MEAN_MOTION_DOT":"0.00001905","ARG_OF_PERICENTER":"74.6099","ELEMENT_SET_NO":"999","FILE":"3183598","TLE_LINE2":"2 44738  53.0532 172.7019 0002111  74.6099 285.5123 15.06397933108037","COUNTRY_CODE":"US","OBJECT_NAME":"STARLINK-1033","SEMIMAJOR_AXIS":"6925.355","SITE":"AFETR","DECAY_DATE":null,"APOAPSIS":"548.682","EPHEMERIS_TYPE":"0"}];
